{"type": "FeatureCollection", "features": [ {"type": "Feature", "properties": {"norad_id": 34375, "name": "IRIDIUM 33 DEB", "group": "iridium-33-debris", "lat": 81.4679930017831, "lon": -149.1933402715903, "alt_km": 801.5288465355561, "timestamp": "2025-12-03T22:42:33.017809+00:00", "meta": {"OBJECT_NAME": "IRIDIUM 33 DEB", "OBJECT_ID": "1997-051FT", "EPOCH": "2025-12-03T01:02:45.120192", "MEAN_MOTION": 14.17964565, "ECCENTRICITY": 0.01024686, "INCLINATION": 86.4333, "RA_OF_ASC_NODE": 186.6042, "ARG_OF_PERICENTER": 157.2608, "MEAN_ANOMALY": 1.3107, "EPHEMERIS_TYPE": 0, "CLASSIFICATION_TYPE": "U", "NORAD_CAT_ID": 34375, "ELEMENT_SET_NO": 999, "REV_AT_EPOCH": 86574, "BSTAR": 0.00052219187, "MEAN_MOTION_DOT": 1.144e-05, "MEAN_MOTION_DDOT": 0}, "tle": {"line1": "1 34375U 97051FT  25337.04357778  .00001144  00000+0  52219-3 0  9996", "line2": "2 34375  86.4333 186.6042 0102468 157.2608   1.3107 14.17964565865748"}}, "geometry": {"type": "Point", "coordinates": [-149.1933402715903, 81.4679930017831]}}, {"type": "Feature", "properties": {"norad_id": 34376, "name": "IRIDIUM 33 DEB", "group": "iridium-33-debris", "lat": 50.72484182897132, "lon": -174.04584285764284, "alt_km": 673.9790584417178, "timestamp": "2025-12-03T22:42:33.017818+00:00", "meta": {"OBJECT_NAME": "IRIDIUM 33 DEB", "OBJECT_ID": "1997-051FU", "EPOCH": "2025-12-03T08:58:52.417920", "MEAN_MOTION": 14.62344728, "ECCENTRICITY": 0.0026089, "INCLINATION": 86.2996, "RA_OF_ASC_NODE": 10.7501, "ARG_OF_PERICENTER": 198.7208, "MEAN_ANOMALY": 161.3047, "EPHEMERIS_TYPE": 0, "CLASSIFICATION_TYPE": "U", "NORAD_CAT_ID": 34376, "ELEMENT_SET_NO": 999, "REV_AT_EPOCH": 87870, "BSTAR": 0.0019889, "MEAN_MOTION_DOT": 0.00010121, "MEAN_MOTION_DDOT": 0}, "tle": {"line1": "1 34376U 97051FU  25337.37421780  .00010121  00000+0  19889-2 0  9998", "line2": "2 34376  86.2996  10.7501 0026089 198.7208 161.3047 14.62344728878702"}}, "geometry": {"type": "Point", "coordinates": [-174.04584285764284, 50.72484182897132]}}, {"type": "Feature", "properties": {"norad_id": 34486, "name": "IRIDIUM 33 DEB", "group": "iridium-33-debris", "lat": 21.88181504786309, "lon": 17.53318598289237, "alt_km": 586.260442958237, "timestamp": "2025-12-03T22:42:33.017827+00:00", "meta": {"OBJECT_NAME": "IRIDIUM 33 DEB", "OBJECT_ID": "1997-051GB", "EPOCH": "2025-12-03T10:02:24.253728", "MEAN_MOTION": 14.95105578, "ECCENTRICITY": 0.0012925, "INCLINATION": 86.3945, "RA_OF_ASC_NODE": 16.3253, "ARG_OF_PERICENTER": 143.3156, "MEAN_ANOMALY": 279.4709, "EPHEMERIS_TYPE": 0, "CLASSIFICATION_TYPE": "U", "NORAD_CAT_ID": 34486, "ELEMENT_SET_NO": 999, "REV_AT_EPOCH": 88847, "BSTAR": 0.0028184, "MEAN_MOTION_DOT": 0.00031064, "MEAN_MOTION_DDOT": 0}, "tle": {"line1": "1 34486U 97051GB  25337.41833627  .00031064  00000+0  28184-2 0  9999", "line2": "2 34486  86.3945  16.3253 0012925 143.3156 279.4709 14.95105578888472"}}, "geometry": {"type": "Point", "coordinates": [17.53318598289237, 21.88181504786309]}}, {"type": "Feature", "properties": {"norad_id": 34487, "name": "IRIDIUM 33 DEB", "group": "iridium-33-debris", "lat": -70.27807129856757, "lon": -153.56381845475076, "alt_km": 756.9812208025642, "timestamp": "2025-12-03T22:42:33.017836+00:00", "meta": {"OBJECT_NAME": "IRIDIUM 33 DEB", "OBJECT_ID": "1997-051GC", "EPOCH": "2025-12-03T10:12:00.081216", "MEAN_MOTION": 14.43196495, "ECCENTRICITY": 0.0031908, "INCLINATION": 86.3443, "RA_OF_ASC_NODE": 16.3873, "ARG_OF_PERICENTER": 157.9365, "MEAN_ANOMALY": 266.0119, "EPHEMERIS_TYPE": 0, "CLASSIFICATION_TYPE": "U", "NORAD_CAT_ID": 34487, "ELEMENT_SET_NO": 999, "REV_AT_EPOCH": 88114, "BSTAR": 0.00029137, "MEAN_MOTION_DOT": 1.005e-05, "MEAN_MOTION_DDOT": 0}, "tle": {"line1": "1 34487U 97051GC  25337.42500094  .00001005  00000+0  29137-3 0  9992", "line2": "2 34487  86.3443  16.3873 0031908 157.9365 266.0119 14.43196495881144"}}, "geometry": {"type": "Point", "coordinates": [-153.56381845475076, -70.27807129856757]}}, {"type": "Feature", "properties": {"norad_id": 34488, "name": "IRIDIUM 33 DEB", "group": "iridium-33-debris", "lat": 62.55979088175535, "lon": -42.72988089478861, "alt_km": 470.42654133916676, "timestamp": "2025-12-03T22:42:33.017845+00:00", "meta": {"OBJECT_NAME": "IRIDIUM 33 DEB", "OBJECT_ID": "1997-051GD", "EPOCH": "2025-12-02T22:49:46.136352", "MEAN_MOTION": 15.25923999, "ECCENTRICITY": 0.00156738, "INCLINATION": 86.3246, "RA_OF_ASC_NODE": 310.649, "ARG_OF_PERICENTER": 66.3953, "MEAN_ANOMALY": 293.8937, "EPHEMERIS_TYPE": 0, "CLASSIFICATION_TYPE": "U", "NORAD_CAT_ID": 34488, "ELEMENT_SET_NO": 999, "REV_AT_EPOCH": 89090, "BSTAR": 0.0055589984, "MEAN_MOTION_DOT": 0.0014559, "MEAN_MOTION_DDOT": 0}, "tle": {"line1": "1 34488U 97051GD  25336.95122843  .00145590  00000+0  55590-2 0  9991", "line2": "2 34488  86.3246 310.6490 0015673  66.3953 293.8937 15.25923999890906"}}, "geometry": {"type": "Point", "coordinates": [-42.72988089478861, 62.55979088175535]}}, {"type": "Feature", "properties": {"norad_id": 34492, "name": "IRIDIUM 33 DEB", "group": "iridium-33-debris", "lat": 3.6295600256226463, "lon": 157.9601418656616, "alt_km": 808.608951458772, "timestamp": "2025-12-03T22:42:33.017869+00:00", "meta": {"OBJECT_NAME": "IRIDIUM 33 DEB", "OBJECT_ID": "1997-051GH", "EPOCH": "2025-12-03T10:48:32.343840", "MEAN_MOTION": 14.25280236, "ECCENTRICITY": 0.0190283, "INCLINATION": 86.4711, "RA_OF_ASC_NODE": 338.3846, "ARG_OF_PERICENTER": 268.3385, "MEAN_ANOMALY": 247.4972, "EPHEMERIS_TYPE": 0, "CLASSIFICATION_TYPE": "U", "NORAD_CAT_ID": 34492, "ELEMENT_SET_NO": 999, "REV_AT_EPOCH": 84926, "BSTAR": 0.0085812, "MEAN_MOTION_DOT": 0.00024475, "MEAN_MOTION_DDOT": 0}, "tle": {"line1": "1 34492U 97051GH  25337.45037435  .00024475  00000+0  85812-2 0  9992", "line2": "2 34492  86.4711 338.3846 0190283 268.3385 247.4972 14.25280236849261"}}, "geometry": {"type": "Point", "coordinates": [157.9601418656616, 3.6295600256226463]}}, {"type": "Feature", "properties": {"norad_id": 34497, "name": "IRIDIUM 33 DEB", "group": "iridium-33-debris", "lat": -3.365490678855386, "lon": 55.938256498621925, "alt_km": 747.6456150505437, "timestamp": "2025-12-03T22:42:33.017879+00:00", "meta": {"OBJECT_NAME": "IRIDIUM 33 DEB", "OBJECT_ID": "1997-051GN", "EPOCH": "2025-12-03T06:10:51.201984", "MEAN_MOTION": 14.27408211, "ECCENTRICITY": 0.0079856, "INCLINATION": 86.2784, "RA_OF_ASC_NODE": 56.4516, "ARG_OF_PERICENTER": 10.3771, "MEAN_ANOMALY": 49.8757, "EPHEMERIS_TYPE": 0, "CLASSIFICATION_TYPE": "U", "NORAD_CAT_ID": 34497, "ELEMENT_SET_NO": 999, "REV_AT_EPOCH": 86748, "BSTAR": 0.00083815, "MEAN_MOTION_DOT": 2.144e-05, "MEAN_MOTION_DDOT": 0}, "tle": {"line1": "1 34497U 97051GN  25337.25753706  .00002144  00000+0  83815-3 0  9992", "line2": "2 34497  86.2784  56.4516 0079856  10.3771  49.8757 14.27408211867488"}}, "geometry": {"type": "Point", "coordinates": [55.938256498621925, -3.365490678855386]}}, {"type": "Feature", "properties": {"norad_id": 34508, "name": "IRIDIUM 33 DEB", "group": "iridium-33-debris", "lat": 10.788997387259354, "lon": -74.32335155843174, "alt_km": 726.1606191747969, "timestamp": "2025-12-03T22:42:33.017888+00:00", "meta": {"OBJECT_NAME": "IRIDIUM 33 DEB", "OBJECT_ID": "1997-051GZ", "EPOCH": "2025-12-03T08:33:52.368768", "MEAN_MOTION": 14.38274936, "ECCENTRICITY": 0.0065473, "INCLINATION": 86.3696, "RA_OF_ASC_NODE": 106.6197, "ARG_OF_PERICENTER": 203.4405, "MEAN_ANOMALY": 156.3806, "EPHEMERIS_TYPE": 0, "CLASSIFICATION_TYPE": "U", "NORAD_CAT_ID": 34508, "ELEMENT_SET_NO": 999, "REV_AT_EPOCH": 87174, "BSTAR": 0.0024457, "MEAN_MOTION_DOT": 7.645e-05, "MEAN_MOTION_DDOT": 0}, "tle": {"line1": "1 34508U 97051GZ  25337.35685612  .00007645  00000+0  24457-2 0  9993", "line2": "2 34508  86.3696 106.6197 0065473 203.4405 156.3806 14.38274936871746"}}, "geometry": {"type": "Point", "coordinates": [-74.32335155843174, 10.788997387259354]}}, {"type": "Feature", "properties": {"norad_id": 34521, "name": "IRIDIUM 33 DEB", "group": "iridium-33-debris", "lat": -80.4844728730979, "lon": 12.238207715966489, "alt_km": 689.399638768894, "timestamp": "2025-12-03T22:42:33.017898+00:00", "meta": {"OBJECT_NAME": "IRIDIUM 33 DEB", "OBJECT_ID": "1997-051HN", "EPOCH": "2025-12-03T11:35:26.969856", "MEAN_MOTION": 14.63226044, "ECCENTRICITY": 0.0001159, "INCLINATION": 86.3814, "RA_OF_ASC_NODE": 34.6229, "ARG_OF_PERICENTER": 292.6946, "MEAN_ANOMALY": 67.4143, "EPHEMERIS_TYPE": 0, "CLASSIFICATION_TYPE": "U", "NORAD_CAT_ID": 34521, "ELEMENT_SET_NO": 999, "REV_AT_EPOCH": 88337, "BSTAR": 0.0013818, "MEAN_MOTION_DOT": 7.138e-05, "MEAN_MOTION_DDOT": 0}, "tle": {"line1": "1 34521U 97051HN  25337.48295104  .00007138  00000+0  13818-2 0  9991", "line2": "2 34521  86.3814  34.6229 0001159 292.6946  67.4143 14.63226044883373"}}, "geometry": {"type": "Point", "coordinates": [12.238207715966489, -80.4844728730979]}}, {"type": "Feature", "properties": {"norad_id": 34525, "name": "IRIDIUM 33 DEB", "group": "iridium-33-debris", "lat": 23.01301346361584, "lon": 52.14013011331516, "alt_km": 748.8270201155965, "timestamp": "2025-12-03T22:42:33.017907+00:00", "meta": {"OBJECT_NAME": "IRIDIUM 33 DEB", "OBJECT_ID": "1997-051HS", "EPOCH": "2025-12-03T11:01:10.915104", "MEAN_MOTION": 14.42867248, "ECCENTRICITY": 0.0006435, "INCLINATION": 86.3737, "RA_OF_ASC_NODE": 50.8044, "ARG_OF_PERICENTER": 116.3826, "MEAN_ANOMALY": 258.5151, "EPHEMERIS_TYPE": 0, "CLASSIFICATION_TYPE": "U", "NORAD_CAT_ID": 34525, "ELEMENT_SET_NO": 999, "REV_AT_EPOCH": 87954, "BSTAR": 0.0005736, "MEAN_MOTION_DOT": 1.934e-05, "MEAN_MOTION_DDOT": 0}, "tle": {"line1": "1 34525U 97051HS  25337.45915411  .00001934  00000+0  57360-3 0  9991", "line2": "2 34525  86.3737  50.8044 0006435 116.3826 258.5151 14.42867248879547"}}, "geometry": {"type": "Point", "coordinates": [52.14013011331516, 23.01301346361584]}}]}